{
"type": "FeatureCollection",
"name": "texas_gulf_sample_locations",
"crs": { "type": "name", "properties": { "name": "urn:ogc:def:crs:OGC:1.3:CRS84" } },
"features": [
{ "type": "Feature", "properties": { "comid": "1611674" }, "geometry": { "type": "Point", "coordinates": [ -96.184019226488118, 29.339051532017876 ] } },
{ "type": "Feature", "properties": { "comid": "1611676" }, "geometry": { "type": "Point", "coordinates": [ -96.177662760986706, 29.333008021895147 ] } },
{ "type": "Feature", "properties": { "comid": "1611678" }, "geometry": { "type": "Point", "coordinates": [ -96.144701160257284, 29.341513259261951 ] } },
{ "type": "Feature", "properties": { "comid": "1611680" }, "geometry": { "type": "Point", "coordinates": [ -96.108723059731346, 29.323533857250116 ] } },
{ "type": "Feature", "properties": { "comid": "1611770" }, "geometry": { "type": "Point", "coordinates": [ -96.114314949470298, 29.335229466053462 ] } },
{ "type": "Feature", "properties": { "comid": "3762962" }, "geometry": { "type": "Point", "coordinates": [ -96.457845294773819, 29.71033449974767 ] } },
{ "type": "Feature", "properties": { "comid": "3762964" }, "geometry": { "type": "Point", "coordinates": [ -96.475602980047213, 29.726428640630409 ] } },
{ "type": "Feature", "properties": { "comid": "3762966" }, "geometry": { "type": "Point", "coordinates": [ -96.479148674459893, 29.694718571365939 ] } },
{ "type": "Feature", "properties": { "comid": "3762968" }, "geometry": { "type": "Point", "coordinates": [ -96.425110712409321, 29.69249727710914 ] } },
{ "type": "Feature", "properties": { "comid": "3762970" }, "geometry": { "type": "Point", "coordinates": [ -96.560332870826613, 29.682953692418078 ] } },
{ "type": "Feature", "properties": { "comid": "3762972" }, "geometry": { "type": "Point", "coordinates": [ -96.458082322340346, 29.678570219506433 ] } },
{ "type": "Feature", "properties": { "comid": "3762974" }, "geometry": { "type": "Point", "coordinates": [ -96.433670611252438, 29.668719740001595 ] } },
{ "type": "Feature", "properties": { "comid": "3762976" }, "geometry": { "type": "Point", "coordinates": [ -96.653435630006257, 29.666914332486868 ] } },
{ "type": "Feature", "properties": { "comid": "3762978" }, "geometry": { "type": "Point", "coordinates": [ -96.663582862189344, 29.643850250726061 ] } },
{ "type": "Feature", "properties": { "comid": "3762980" }, "geometry": { "type": "Point", "coordinates": [ -96.63933695441699, 29.622799435772269 ] } },
{ "type": "Feature", "properties": { "comid": "3762982" }, "geometry": { "type": "Point", "coordinates": [ -96.616537445578317, 29.630597870561125 ] } },
{ "type": "Feature", "properties": { "comid": "3762984" }, "geometry": { "type": "Point", "coordinates": [ -96.465915304105707, 29.627383296570795 ] } },
{ "type": "Feature", "properties": { "comid": "3762986" }, "geometry": { "type": "Point", "coordinates": [ -96.69194458334151, 29.634879066173916 ] } },
{ "type": "Feature", "properties": { "comid": "3762988" }, "geometry": { "type": "Point", "coordinates": [ -96.695576526814861, 29.62022801145908 ] } },
{ "type": "Feature", "properties": { "comid": "3762990" }, "geometry": { "type": "Point", "coordinates": [ -96.658867969775685, 29.606092883253236 ] } },
{ "type": "Feature", "properties": { "comid": "3762992" }, "geometry": { "type": "Point", "coordinates": [ -96.561197096639376, 29.617624053418769 ] } },
{ "type": "Feature", "properties": { "comid": "3762994" }, "geometry": { "type": "Point", "coordinates": [ -96.636451736155919, 29.605783051678735 ] } },
{ "type": "Feature", "properties": { "comid": "3763006" }, "geometry": { "type": "Point", "coordinates": [ -96.526976602940294, 29.560484715979072 ] } },
{ "type": "Feature", "properties": { "comid": "3763008" }, "geometry": { "type": "Point", "coordinates": [ -96.507019872518939, 29.553018870208732 ] } },
{ "type": "Feature", "properties": { "comid": "3763010" }, "geometry": { "type": "Point", "coordinates": [ -96.575119259133686, 29.568980178426649 ] } },
{ "type": "Feature", "properties": { "comid": "3763012" }, "geometry": { "type": "Point", "coordinates": [ -96.482288874955671, 29.550646475702866 ] } },
{ "type": "Feature", "properties": { "comid": "3763014" }, "geometry": { "type": "Point", "coordinates": [ -96.534310227701368, 29.548054174783118 ] } },
{ "type": "Feature", "properties": { "comid": "3763016" }, "geometry": { "type": "Point", "coordinates": [ -96.457338160945284, 29.544474254638235 ] } },
{ "type": "Feature", "properties": { "comid": "3763018" }, "geometry": { "type": "Point", "coordinates": [ -96.474367237453464, 29.544402160023548 ] } },
{ "type": "Feature", "properties": { "comid": "3763020" }, "geometry": { "type": "Point", "coordinates": [ -96.474695796130632, 29.544526393277458 ] } },
{ "type": "Feature", "properties": { "comid": "3763022" }, "geometry": { "type": "Point", "coordinates": [ -96.58068361263868, 29.550452492181524 ] } },
{ "type": "Feature", "properties": { "comid": "3763024" }, "geometry": { "type": "Point", "coordinates": [ -96.458655598362569, 29.557560671693164 ] } },
{ "type": "Feature", "properties": { "comid": "3763026" }, "geometry": { "type": "Point", "coordinates": [ -96.448177919168955, 29.542669825818887 ] } },
{ "type": "Feature", "properties": { "comid": "3763028" }, "geometry": { "type": "Point", "coordinates": [ -96.469856288009368, 29.541026174094359 ] } },
{ "type": "Feature", "properties": { "comid": "3763032" }, "geometry": { "type": "Point", "coordinates": [ -96.427351148163794, 29.539474043637046 ] } },
{ "type": "Feature", "properties": { "comid": "3763042" }, "geometry": { "type": "Point", "coordinates": [ -96.457066464874771, 29.520933900415795 ] } },
{ "type": "Feature", "properties": { "comid": "3763046" }, "geometry": { "type": "Point", "coordinates": [ -96.34080097805338, 29.526151076217047 ] } },
{ "type": "Feature", "properties": { "comid": "3763050" }, "geometry": { "type": "Point", "coordinates": [ -96.442890122762734, 29.509922461277288 ] } },
{ "type": "Feature", "properties": { "comid": "3763052" }, "geometry": { "type": "Point", "coordinates": [ -96.348074792555209, 29.500430179301855 ] } },
{ "type": "Feature", "properties": { "comid": "3763054" }, "geometry": { "type": "Point", "coordinates": [ -96.3521376600807, 29.500310168423681 ] } },
{ "type": "Feature", "properties": { "comid": "3763056" }, "geometry": { "type": "Point", "coordinates": [ -96.435475896935358, 29.503653377861667 ] } },
{ "type": "Feature", "properties": { "comid": "3763110" }, "geometry": { "type": "Point", "coordinates": [ -96.452344737308493, 29.697687395895365 ] } },
{ "type": "Feature", "properties": { "comid": "3763112" }, "geometry": { "type": "Point", "coordinates": [ -96.491517089663773, 29.622159323730077 ] } },
{ "type": "Feature", "properties": { "comid": "3763116" }, "geometry": { "type": "Point", "coordinates": [ -96.512325547923751, 29.576967386958028 ] } },
{ "type": "Feature", "properties": { "comid": "3763118" }, "geometry": { "type": "Point", "coordinates": [ -96.495401891513851, 29.5547362801709 ] } },
{ "type": "Feature", "properties": { "comid": "3763120" }, "geometry": { "type": "Point", "coordinates": [ -96.460482268062009, 29.543467862319613 ] } },
{ "type": "Feature", "properties": { "comid": "3763122" }, "geometry": { "type": "Point", "coordinates": [ -96.454176817101327, 29.543298732956526 ] } },
{ "type": "Feature", "properties": { "comid": "3763124" }, "geometry": { "type": "Point", "coordinates": [ -96.336469898474206, 29.502482573034246 ] } },
{ "type": "Feature", "properties": { "comid": "3763126" }, "geometry": { "type": "Point", "coordinates": [ -96.338430262306161, 29.55305839589343 ] } },
{ "type": "Feature", "properties": { "comid": "3763128" }, "geometry": { "type": "Point", "coordinates": [ -96.534204261264534, 29.697182921191299 ] } },
{ "type": "Feature", "properties": { "comid": "3763130" }, "geometry": { "type": "Point", "coordinates": [ -96.480254138219422, 29.688015232014568 ] } },
{ "type": "Feature", "properties": { "comid": "3763132" }, "geometry": { "type": "Point", "coordinates": [ -96.506271813421989, 29.690759748439969 ] } },
{ "type": "Feature", "properties": { "comid": "3763134" }, "geometry": { "type": "Point", "coordinates": [ -96.529738424742689, 29.694575027401218 ] } },
{ "type": "Feature", "properties": { "comid": "3763136" }, "geometry": { "type": "Point", "coordinates": [ -96.478465494130432, 29.685874687338316 ] } },
{ "type": "Feature", "properties": { "comid": "3763138" }, "geometry": { "type": "Point", "coordinates": [ -96.458210694217456, 29.67231982069011 ] } },
{ "type": "Feature", "properties": { "comid": "3763140" }, "geometry": { "type": "Point", "coordinates": [ -96.469543911432424, 29.677397804844627 ] } },
{ "type": "Feature", "properties": { "comid": "3763142" }, "geometry": { "type": "Point", "coordinates": [ -96.453093672829624, 29.667619214325867 ] } },
{ "type": "Feature", "properties": { "comid": "3763144" }, "geometry": { "type": "Point", "coordinates": [ -96.449795975636377, 29.659585194442695 ] } },
{ "type": "Feature", "properties": { "comid": "3763146" }, "geometry": { "type": "Point", "coordinates": [ -96.448739594309188, 29.657774587589827 ] } },
{ "type": "Feature", "properties": { "comid": "3763148" }, "geometry": { "type": "Point", "coordinates": [ -96.440102463272567, 29.642239174302976 ] } },
{ "type": "Feature", "properties": { "comid": "3763150" }, "geometry": { "type": "Point", "coordinates": [ -96.428475447302247, 29.6156779847413 ] } },
{ "type": "Feature", "properties": { "comid": "3763152" }, "geometry": { "type": "Point", "coordinates": [ -96.446203293892481, 29.61355695412286 ] } },
{ "type": "Feature", "properties": { "comid": "3763154" }, "geometry": { "type": "Point", "coordinates": [ -96.452986121609442, 29.607325167038283 ] } },
{ "type": "Feature", "properties": { "comid": "3763156" }, "geometry": { "type": "Point", "coordinates": [ -96.456892193810788, 29.599490621189201 ] } },
{ "type": "Feature", "properties": { "comid": "3763158" }, "geometry": { "type": "Point", "coordinates": [ -96.416139771784472, 29.57970100307902 ] } },
{ "type": "Feature", "properties": { "comid": "3763160" }, "geometry": { "type": "Point", "coordinates": [ -96.400639147424585, 29.546049791136731 ] } },
{ "type": "Feature", "properties": { "comid": "3763162" }, "geometry": { "type": "Point", "coordinates": [ -96.448413276587303, 29.594167174131893 ] } },
{ "type": "Feature", "properties": { "comid": "3763164" }, "geometry": { "type": "Point", "coordinates": [ -96.405256026006597, 29.52946307919261 ] } },
{ "type": "Feature", "properties": { "comid": "3763166" }, "geometry": { "type": "Point", "coordinates": [ -96.401846549327374, 29.514322618655942 ] } },
{ "type": "Feature", "properties": { "comid": "3763168" }, "geometry": { "type": "Point", "coordinates": [ -96.406097960637638, 29.531380154337267 ] } },
{ "type": "Feature", "properties": { "comid": "3763170" }, "geometry": { "type": "Point", "coordinates": [ -96.45954199224235, 29.684964847406725 ] } },
{ "type": "Feature", "properties": { "comid": "3763732" }, "geometry": { "type": "Point", "coordinates": [ -96.350177201935992, 29.49997833141342 ] } },
{ "type": "Feature", "properties": { "comid": "3763734" }, "geometry": { "type": "Point", "coordinates": [ -96.344728018180604, 29.499529587286681 ] } },
{ "type": "Feature", "properties": { "comid": "3763738" }, "geometry": { "type": "Point", "coordinates": [ -96.355619893193307, 29.494108345384927 ] } },
{ "type": "Feature", "properties": { "comid": "3763742" }, "geometry": { "type": "Point", "coordinates": [ -96.344577387286009, 29.490583642666873 ] } },
{ "type": "Feature", "properties": { "comid": "3763744" }, "geometry": { "type": "Point", "coordinates": [ -96.41192609254189, 29.489359688672586 ] } },
{ "type": "Feature", "properties": { "comid": "3763746" }, "geometry": { "type": "Point", "coordinates": [ -96.365013713583764, 29.482723468188777 ] } },
{ "type": "Feature", "properties": { "comid": "3763748" }, "geometry": { "type": "Point", "coordinates": [ -96.394143131215017, 29.481743535528668 ] } },
{ "type": "Feature", "properties": { "comid": "3763750" }, "geometry": { "type": "Point", "coordinates": [ -96.389428528169603, 29.478439891297075 ] } },
{ "type": "Feature", "properties": { "comid": "3763754" }, "geometry": { "type": "Point", "coordinates": [ -96.285465083098899, 29.466538780347932 ] } },
{ "type": "Feature", "properties": { "comid": "3763758" }, "geometry": { "type": "Point", "coordinates": [ -96.311296296512722, 29.476545177072975 ] } },
{ "type": "Feature", "properties": { "comid": "3763760" }, "geometry": { "type": "Point", "coordinates": [ -96.325318294739716, 29.475126240125206 ] } },
{ "type": "Feature", "properties": { "comid": "3763782" }, "geometry": { "type": "Point", "coordinates": [ -96.397009594370274, 29.443306644225398 ] } },
{ "type": "Feature", "properties": { "comid": "3763788" }, "geometry": { "type": "Point", "coordinates": [ -96.383242863541298, 29.423620440658894 ] } },
{ "type": "Feature", "properties": { "comid": "3763790" }, "geometry": { "type": "Point", "coordinates": [ -96.33465782182742, 29.411284376505193 ] } },
{ "type": "Feature", "properties": { "comid": "3763792" }, "geometry": { "type": "Point", "coordinates": [ -96.319627632844487, 29.425430443506663 ] } },
{ "type": "Feature", "properties": { "comid": "3763794" }, "geometry": { "type": "Point", "coordinates": [ -96.261619728615273, 29.396566560138286 ] } },
{ "type": "Feature", "properties": { "comid": "3763796" }, "geometry": { "type": "Point", "coordinates": [ -96.284394952378477, 29.422972829072535 ] } },
{ "type": "Feature", "properties": { "comid": "3763798" }, "geometry": { "type": "Point", "coordinates": [ -96.361566073601793, 29.387034537379428 ] } },
{ "type": "Feature", "properties": { "comid": "3763800" }, "geometry": { "type": "Point", "coordinates": [ -96.275631850253191, 29.385568887605853 ] } },
{ "type": "Feature", "properties": { "comid": "3763802" }, "geometry": { "type": "Point", "coordinates": [ -96.284750292559252, 29.377880526936671 ] } },
{ "type": "Feature", "properties": { "comid": "3763804" }, "geometry": { "type": "Point", "coordinates": [ -96.293190262547924, 29.396529856324268 ] } },
{ "type": "Feature", "properties": { "comid": "3763806" }, "geometry": { "type": "Point", "coordinates": [ -96.286983146117507, 29.370312114902987 ] } },
{ "type": "Feature", "properties": { "comid": "3763808" }, "geometry": { "type": "Point", "coordinates": [ -96.306860889232766, 29.398843085908624 ] } },
{ "type": "Feature", "properties": { "comid": "3763810" }, "geometry": { "type": "Point", "coordinates": [ -96.27922337180982, 29.368962534619445 ] } },
{ "type": "Feature", "properties": { "comid": "3763814" }, "geometry": { "type": "Point", "coordinates": [ -96.270187327540199, 29.373007587700648 ] } },
{ "type": "Feature", "properties": { "comid": "3763816" }, "geometry": { "type": "Point", "coordinates": [ -96.227481176815459, 29.367814970679643 ] } },
{ "type": "Feature", "properties": { "comid": "3763818" }, "geometry": { "type": "Point", "coordinates": [ -96.207223034648706, 29.35571326340601 ] } },
{ "type": "Feature", "properties": { "comid": "3763820" }, "geometry": { "type": "Point", "coordinates": [ -96.200179359644679, 29.34133418855345 ] } },
{ "type": "Feature", "properties": { "comid": "3763822" }, "geometry": { "type": "Point", "coordinates": [ -96.282302636911155, 29.342530442474878 ] } },
{ "type": "Feature", "properties": { "comid": "3763824" }, "geometry": { "type": "Point", "coordinates": [ -96.172245021243327, 29.325264233057226 ] } },
{ "type": "Feature", "properties": { "comid": "3763826" }, "geometry": { "type": "Point", "coordinates": [ -96.176432317816577, 29.324719086183144 ] } },
{ "type": "Feature", "properties": { "comid": "3763830" }, "geometry": { "type": "Point", "coordinates": [ -96.308832617263008, 29.304336339181901 ] } },
{ "type": "Feature", "properties": { "comid": "3763832" }, "geometry": { "type": "Point", "coordinates": [ -96.30943600390799, 29.291306840963486 ] } },
{ "type": "Feature", "properties": { "comid": "3763834" }, "geometry": { "type": "Point", "coordinates": [ -96.159752646086915, 29.282485658831174 ] } },
{ "type": "Feature", "properties": { "comid": "3763836" }, "geometry": { "type": "Point", "coordinates": [ -96.213751479930366, 29.279515564434305 ] } },
{ "type": "Feature", "properties": { "comid": "3763838" }, "geometry": { "type": "Point", "coordinates": [ -96.189912138252495, 29.282821597525938 ] } },
{ "type": "Feature", "properties": { "comid": "3763842" }, "geometry": { "type": "Point", "coordinates": [ -96.160565346726685, 29.273645324271612 ] } },
{ "type": "Feature", "properties": { "comid": "3763844" }, "geometry": { "type": "Point", "coordinates": [ -96.321777529079341, 29.280416833601191 ] } },
{ "type": "Feature", "properties": { "comid": "3763846" }, "geometry": { "type": "Point", "coordinates": [ -96.226907655596776, 29.27448149903492 ] } },
{ "type": "Feature", "properties": { "comid": "3763852" }, "geometry": { "type": "Point", "coordinates": [ -96.071000525996226, 29.251538572416507 ] } },
{ "type": "Feature", "properties": { "comid": "3763856" }, "geometry": { "type": "Point", "coordinates": [ -96.053843907117553, 29.236350775049864 ] } },
{ "type": "Feature", "properties": { "comid": "3763858" }, "geometry": { "type": "Point", "coordinates": [ -96.038958480685849, 29.228337739729277 ] } },
{ "type": "Feature", "properties": { "comid": "3763860" }, "geometry": { "type": "Point", "coordinates": [ -96.052134624456329, 29.225816225317431 ] } },
{ "type": "Feature", "properties": { "comid": "3763864" }, "geometry": { "type": "Point", "coordinates": [ -96.121695555649509, 29.234501320778264 ] } },
{ "type": "Feature", "properties": { "comid": "3763878" }, "geometry": { "type": "Point", "coordinates": [ -96.15404403050151, 29.219730587345321 ] } },
{ "type": "Feature", "properties": { "comid": "3763884" }, "geometry": { "type": "Point", "coordinates": [ -96.044234949633932, 29.213571995580072 ] } },
{ "type": "Feature", "properties": { "comid": "3763886" }, "geometry": { "type": "Point", "coordinates": [ -96.056270409326771, 29.211534779616819 ] } },
{ "type": "Feature", "properties": { "comid": "3763888" }, "geometry": { "type": "Point", "coordinates": [ -96.055389961244458, 29.200671654713688 ] } },
{ "type": "Feature", "properties": { "comid": "3763894" }, "geometry": { "type": "Point", "coordinates": [ -96.019964220549994, 29.194024978605551 ] } },
{ "type": "Feature", "properties": { "comid": "3763900" }, "geometry": { "type": "Point", "coordinates": [ -96.135476527743265, 29.200944045859536 ] } },
{ "type": "Feature", "properties": { "comid": "3763902" }, "geometry": { "type": "Point", "coordinates": [ -96.207526863087679, 29.21044560125511 ] } },
{ "type": "Feature", "properties": { "comid": "3763904" }, "geometry": { "type": "Point", "coordinates": [ -96.217798697812981, 29.207053597693829 ] } },
{ "type": "Feature", "properties": { "comid": "3763912" }, "geometry": { "type": "Point", "coordinates": [ -96.230645449415448, 29.195038093554096 ] } },
{ "type": "Feature", "properties": { "comid": "3763914" }, "geometry": { "type": "Point", "coordinates": [ -96.054548644614215, 29.18736975905826 ] } },
{ "type": "Feature", "properties": { "comid": "3763916" }, "geometry": { "type": "Point", "coordinates": [ -96.194050001966218, 29.187251067412085 ] } },
{ "type": "Feature", "properties": { "comid": "3763918" }, "geometry": { "type": "Point", "coordinates": [ -96.204268785039005, 29.179172313569612 ] } },
{ "type": "Feature", "properties": { "comid": "3763920" }, "geometry": { "type": "Point", "coordinates": [ -96.035115551412389, 29.181647224075792 ] } },
{ "type": "Feature", "properties": { "comid": "3763930" }, "geometry": { "type": "Point", "coordinates": [ -96.144560195810655, 29.172909073227373 ] } },
{ "type": "Feature", "properties": { "comid": "3763932" }, "geometry": { "type": "Point", "coordinates": [ -96.163721070016052, 29.158921963414372 ] } },
{ "type": "Feature", "properties": { "comid": "3763938" }, "geometry": { "type": "Point", "coordinates": [ -96.187258497565992, 29.152209127263269 ] } },
{ "type": "Feature", "properties": { "comid": "3763940" }, "geometry": { "type": "Point", "coordinates": [ -96.139421849054415, 29.138204370133373 ] } },
{ "type": "Feature", "properties": { "comid": "3763944" }, "geometry": { "type": "Point", "coordinates": [ -96.149706216619123, 29.136867781677473 ] } },
{ "type": "Feature", "properties": { "comid": "3763946" }, "geometry": { "type": "Point", "coordinates": [ -96.084505280140519, 29.165851516802917 ] } },
{ "type": "Feature", "properties": { "comid": "3763948" }, "geometry": { "type": "Point", "coordinates": [ -96.12258444369148, 29.135770885972704 ] } },
{ "type": "Feature", "properties": { "comid": "3763950" }, "geometry": { "type": "Point", "coordinates": [ -96.120251325440805, 29.129088533835514 ] } },
{ "type": "Feature", "properties": { "comid": "3763954" }, "geometry": { "type": "Point", "coordinates": [ -96.131232365639747, 29.130601651416729 ] } },
{ "type": "Feature", "properties": { "comid": "3763958" }, "geometry": { "type": "Point", "coordinates": [ -96.025518528572462, 29.11638065548388 ] } },
{ "type": "Feature", "properties": { "comid": "3763960" }, "geometry": { "type": "Point", "coordinates": [ -96.028934084151373, 29.131902620417559 ] } },
{ "type": "Feature", "properties": { "comid": "3763962" }, "geometry": { "type": "Point", "coordinates": [ -96.071431058234523, 29.12331851336938 ] } },
{ "type": "Feature", "properties": { "comid": "3763966" }, "geometry": { "type": "Point", "coordinates": [ -96.035238972958595, 29.107879242960131 ] } },
{ "type": "Feature", "properties": { "comid": "3763968" }, "geometry": { "type": "Point", "coordinates": [ -96.013834703712831, 29.10521826720187 ] } },
{ "type": "Feature", "properties": { "comid": "3763970" }, "geometry": { "type": "Point", "coordinates": [ -96.051355509522878, 29.094906932236931 ] } },
{ "type": "Feature", "properties": { "comid": "3763972" }, "geometry": { "type": "Point", "coordinates": [ -96.011535814005043, 29.076632378817848 ] } },
{ "type": "Feature", "properties": { "comid": "3763974" }, "geometry": { "type": "Point", "coordinates": [ -96.039377154626933, 29.076911066914185 ] } },
{ "type": "Feature", "properties": { "comid": "3763976" }, "geometry": { "type": "Point", "coordinates": [ -96.082320847060956, 29.096562435114095 ] } },
{ "type": "Feature", "properties": { "comid": "3763978" }, "geometry": { "type": "Point", "coordinates": [ -96.031365940015618, 29.071064855426492 ] } },
{ "type": "Feature", "properties": { "comid": "3763980" }, "geometry": { "type": "Point", "coordinates": [ -96.025919105480511, 29.068854757978656 ] } },
{ "type": "Feature", "properties": { "comid": "3763986" }, "geometry": { "type": "Point", "coordinates": [ -96.048485458332692, 29.068027420809464 ] } },
{ "type": "Feature", "properties": { "comid": "3763996" }, "geometry": { "type": "Point", "coordinates": [ -96.036184277652865, 29.05225913015197 ] } },
{ "type": "Feature", "properties": { "comid": "3763998" }, "geometry": { "type": "Point", "coordinates": [ -96.030183541446547, 29.044777348256581 ] } },
{ "type": "Feature", "properties": { "comid": "3764000" }, "geometry": { "type": "Point", "coordinates": [ -96.066831366450671, 29.048871250296759 ] } },
{ "type": "Feature", "properties": { "comid": "3764002" }, "geometry": { "type": "Point", "coordinates": [ -96.027856204805573, 29.037748564580028 ] } },
{ "type": "Feature", "properties": { "comid": "3764012" }, "geometry": { "type": "Point", "coordinates": [ -96.029922335173154, 29.030809407363186 ] } },
{ "type": "Feature", "properties": { "comid": "3764014" }, "geometry": { "type": "Point", "coordinates": [ -96.033657697539368, 29.027059998674495 ] } },
{ "type": "Feature", "properties": { "comid": "3764016" }, "geometry": { "type": "Point", "coordinates": [ -96.020340271421617, 29.030180821475852 ] } },
{ "type": "Feature", "properties": { "comid": "3764020" }, "geometry": { "type": "Point", "coordinates": [ -96.029422979820225, 29.018415238872009 ] } },
{ "type": "Feature", "properties": { "comid": "3764022" }, "geometry": { "type": "Point", "coordinates": [ -96.015471927086011, 29.005367450678392 ] } },
{ "type": "Feature", "properties": { "comid": "3764100" }, "geometry": { "type": "Point", "coordinates": [ -96.249082154283656, 29.383483785666765 ] } },
{ "type": "Feature", "properties": { "comid": "3764102" }, "geometry": { "type": "Point", "coordinates": [ -96.246195480758928, 29.351161613693073 ] } },
{ "type": "Feature", "properties": { "comid": "3764104" }, "geometry": { "type": "Point", "coordinates": [ -96.236490814977941, 29.299930328878563 ] } },
{ "type": "Feature", "properties": { "comid": "3764108" }, "geometry": { "type": "Point", "coordinates": [ -96.252161546077033, 29.270831896002115 ] } },
{ "type": "Feature", "properties": { "comid": "3764110" }, "geometry": { "type": "Point", "coordinates": [ -96.270862867655779, 29.269318685768415 ] } },
{ "type": "Feature", "properties": { "comid": "3764112" }, "geometry": { "type": "Point", "coordinates": [ -96.051190006154783, 29.272934542081575 ] } },
{ "type": "Feature", "properties": { "comid": "3764114" }, "geometry": { "type": "Point", "coordinates": [ -96.065081105499587, 29.23796004165446 ] } },
{ "type": "Feature", "properties": { "comid": "3764116" }, "geometry": { "type": "Point", "coordinates": [ -96.117212287926407, 29.265981205864406 ] } },
{ "type": "Feature", "properties": { "comid": "3764118" }, "geometry": { "type": "Point", "coordinates": [ -96.133196674961866, 29.25768049011177 ] } },
{ "type": "Feature", "properties": { "comid": "3764122" }, "geometry": { "type": "Point", "coordinates": [ -96.165505836267414, 29.252912200623499 ] } },
{ "type": "Feature", "properties": { "comid": "3764124" }, "geometry": { "type": "Point", "coordinates": [ -96.194407103459099, 29.240025429824414 ] } },
{ "type": "Feature", "properties": { "comid": "3764128" }, "geometry": { "type": "Point", "coordinates": [ -96.260202282749091, 29.231777996805402 ] } },
{ "type": "Feature", "properties": { "comid": "3764130" }, "geometry": { "type": "Point", "coordinates": [ -96.265691245790805, 29.211252869988627 ] } },
{ "type": "Feature", "properties": { "comid": "3764132" }, "geometry": { "type": "Point", "coordinates": [ -96.337747235378316, 29.499549843095977 ] } },
{ "type": "Feature", "properties": { "comid": "3764134" }, "geometry": { "type": "Point", "coordinates": [ -96.286969511111892, 29.462520558984668 ] } },
{ "type": "Feature", "properties": { "comid": "3764136" }, "geometry": { "type": "Point", "coordinates": [ -96.02879227518379, 29.042203750849463 ] } },
{ "type": "Feature", "properties": { "comid": "3764138" }, "geometry": { "type": "Point", "coordinates": [ -96.369295566803132, 29.380298836451523 ] } },
{ "type": "Feature", "properties": { "comid": "3764140" }, "geometry": { "type": "Point", "coordinates": [ -96.25138107258023, 29.364714052556707 ] } },
{ "type": "Feature", "properties": { "comid": "3764142" }, "geometry": { "type": "Point", "coordinates": [ -96.033840788097791, 29.113753574061565 ] } },
{ "type": "Feature", "properties": { "comid": "3764144" }, "geometry": { "type": "Point", "coordinates": [ -96.041451253074683, 29.030531587212664 ] } },
{ "type": "Feature", "properties": { "comid": "3764146" }, "geometry": { "type": "Point", "coordinates": [ -96.353127160881002, 29.500252587860192 ] } },
{ "type": "Feature", "properties": { "comid": "3764148" }, "geometry": { "type": "Point", "coordinates": [ -96.384512325933713, 29.489953355959567 ] } },
{ "type": "Feature", "properties": { "comid": "3764150" }, "geometry": { "type": "Point", "coordinates": [ -96.375285627027907, 29.479945088130808 ] } },
{ "type": "Feature", "properties": { "comid": "3764152" }, "geometry": { "type": "Point", "coordinates": [ -96.380986806208142, 29.477228877962119 ] } },
{ "type": "Feature", "properties": { "comid": "3764154" }, "geometry": { "type": "Point", "coordinates": [ -96.386176294142757, 29.474141887960759 ] } },
{ "type": "Feature", "properties": { "comid": "3764156" }, "geometry": { "type": "Point", "coordinates": [ -96.390587639039936, 29.464350780861604 ] } },
{ "type": "Feature", "properties": { "comid": "3764158" }, "geometry": { "type": "Point", "coordinates": [ -96.39113419961366, 29.450715435762781 ] } },
{ "type": "Feature", "properties": { "comid": "3764160" }, "geometry": { "type": "Point", "coordinates": [ -96.384861294263047, 29.449019754369584 ] } },
{ "type": "Feature", "properties": { "comid": "3764162" }, "geometry": { "type": "Point", "coordinates": [ -96.362490801018808, 29.427528891813797 ] } },
{ "type": "Feature", "properties": { "comid": "3764164" }, "geometry": { "type": "Point", "coordinates": [ -96.358223959332264, 29.402534755038545 ] } },
{ "type": "Feature", "properties": { "comid": "3764166" }, "geometry": { "type": "Point", "coordinates": [ -96.336202727716369, 29.399531487812204 ] } },
{ "type": "Feature", "properties": { "comid": "3764168" }, "geometry": { "type": "Point", "coordinates": [ -96.357603719378446, 29.396859595144637 ] } },
{ "type": "Feature", "properties": { "comid": "3764170" }, "geometry": { "type": "Point", "coordinates": [ -96.344457344367896, 29.393889340034566 ] } },
{ "type": "Feature", "properties": { "comid": "3764172" }, "geometry": { "type": "Point", "coordinates": [ -96.325204663551929, 29.392775443047096 ] } },
{ "type": "Feature", "properties": { "comid": "3764174" }, "geometry": { "type": "Point", "coordinates": [ -96.331119221768205, 29.398250896912476 ] } },
{ "type": "Feature", "properties": { "comid": "3764176" }, "geometry": { "type": "Point", "coordinates": [ -96.321852296612832, 29.379599758833855 ] } },
{ "type": "Feature", "properties": { "comid": "3764178" }, "geometry": { "type": "Point", "coordinates": [ -96.310073241415822, 29.371683682721049 ] } },
{ "type": "Feature", "properties": { "comid": "3764180" }, "geometry": { "type": "Point", "coordinates": [ -96.296126324673878, 29.368885457660074 ] } },
{ "type": "Feature", "properties": { "comid": "3764182" }, "geometry": { "type": "Point", "coordinates": [ -96.285620357809236, 29.368852893559964 ] } },
{ "type": "Feature", "properties": { "comid": "3764184" }, "geometry": { "type": "Point", "coordinates": [ -96.282699989696809, 29.36840230281101 ] } },
{ "type": "Feature", "properties": { "comid": "3764186" }, "geometry": { "type": "Point", "coordinates": [ -96.279254243300144, 29.368015778966548 ] } },
{ "type": "Feature", "properties": { "comid": "3764188" }, "geometry": { "type": "Point", "coordinates": [ -96.274745022210851, 29.366473278118672 ] } },
{ "type": "Feature", "properties": { "comid": "3764190" }, "geometry": { "type": "Point", "coordinates": [ -96.26214837643991, 29.345332214284621 ] } },
{ "type": "Feature", "properties": { "comid": "3764192" }, "geometry": { "type": "Point", "coordinates": [ -96.264226072527862, 29.35827691726967 ] } },
{ "type": "Feature", "properties": { "comid": "3764194" }, "geometry": { "type": "Point", "coordinates": [ -96.246954529893657, 29.337549765424839 ] } },
{ "type": "Feature", "properties": { "comid": "3764196" }, "geometry": { "type": "Point", "coordinates": [ -96.262718183201443, 29.332496868374196 ] } },
{ "type": "Feature", "properties": { "comid": "3764198" }, "geometry": { "type": "Point", "coordinates": [ -96.232139042684096, 29.344253632837681 ] } },
{ "type": "Feature", "properties": { "comid": "3764200" }, "geometry": { "type": "Point", "coordinates": [ -96.200759065099859, 29.341201571721037 ] } },
{ "type": "Feature", "properties": { "comid": "3764202" }, "geometry": { "type": "Point", "coordinates": [ -96.353982794792657, 29.390142655764816 ] } },
{ "type": "Feature", "properties": { "comid": "3764204" }, "geometry": { "type": "Point", "coordinates": [ -96.323860794671205, 29.38875895468674 ] } },
{ "type": "Feature", "properties": { "comid": "3764206" }, "geometry": { "type": "Point", "coordinates": [ -96.258427442934575, 29.386148464777428 ] } },
{ "type": "Feature", "properties": { "comid": "3764208" }, "geometry": { "type": "Point", "coordinates": [ -96.238237359507835, 29.382436518554652 ] } },
{ "type": "Feature", "properties": { "comid": "3764210" }, "geometry": { "type": "Point", "coordinates": [ -96.22136896002668, 29.350885965693106 ] } },
{ "type": "Feature", "properties": { "comid": "3764212" }, "geometry": { "type": "Point", "coordinates": [ -96.286745560956945, 29.369339554487624 ] } },
{ "type": "Feature", "properties": { "comid": "3764214" }, "geometry": { "type": "Point", "coordinates": [ -96.30555566095326, 29.369026321111864 ] } },
{ "type": "Feature", "properties": { "comid": "3764216" }, "geometry": { "type": "Point", "coordinates": [ -96.280818361354719, 29.36857738795538 ] } },
{ "type": "Feature", "properties": { "comid": "3764218" }, "geometry": { "type": "Point", "coordinates": [ -96.277722260587481, 29.368212054579956 ] } },
{ "type": "Feature", "properties": { "comid": "3764220" }, "geometry": { "type": "Point", "coordinates": [ -96.274411993747506, 29.36355455488733 ] } },
{ "type": "Feature", "properties": { "comid": "3764222" }, "geometry": { "type": "Point", "coordinates": [ -96.237301660876412, 29.343591721200166 ] } },
{ "type": "Feature", "properties": { "comid": "3764224" }, "geometry": { "type": "Point", "coordinates": [ -96.26744089442353, 29.335354888119834 ] } },
{ "type": "Feature", "properties": { "comid": "3764226" }, "geometry": { "type": "Point", "coordinates": [ -96.167959427525773, 29.316908854615733 ] } },
{ "type": "Feature", "properties": { "comid": "3764228" }, "geometry": { "type": "Point", "coordinates": [ -96.185501726758289, 29.326595659882923 ] } },
{ "type": "Feature", "properties": { "comid": "3764230" }, "geometry": { "type": "Point", "coordinates": [ -96.170185336322348, 29.316351648285892 ] } },
{ "type": "Feature", "properties": { "comid": "3764232" }, "geometry": { "type": "Point", "coordinates": [ -96.174116548193339, 29.31609034847445 ] } },
{ "type": "Feature", "properties": { "comid": "3764234" }, "geometry": { "type": "Point", "coordinates": [ -96.108959666940009, 29.245209381875554 ] } },
{ "type": "Feature", "properties": { "comid": "3764236" }, "geometry": { "type": "Point", "coordinates": [ -96.108822861193332, 29.243516988316692 ] } },
{ "type": "Feature", "properties": { "comid": "3764238" }, "geometry": { "type": "Point", "coordinates": [ -96.108280059878666, 29.243050555157549 ] } },
{ "type": "Feature", "properties": { "comid": "3764240" }, "geometry": { "type": "Point", "coordinates": [ -96.098670178182715, 29.275599449550668 ] } },
{ "type": "Feature", "properties": { "comid": "3764242" }, "geometry": { "type": "Point", "coordinates": [ -96.105362176236113, 29.256391478076914 ] } },
{ "type": "Feature", "properties": { "comid": "3764244" }, "geometry": { "type": "Point", "coordinates": [ -96.127992918306106, 29.30939483435829 ] } },
{ "type": "Feature", "properties": { "comid": "3764246" }, "geometry": { "type": "Point", "coordinates": [ -96.100375348934577, 29.301409274275759 ] } },
{ "type": "Feature", "properties": { "comid": "3764248" }, "geometry": { "type": "Point", "coordinates": [ -96.155187299966627, 29.317719144645359 ] } },
{ "type": "Feature", "properties": { "comid": "3764250" }, "geometry": { "type": "Point", "coordinates": [ -96.175700894472712, 29.316295154538079 ] } },
{ "type": "Feature", "properties": { "comid": "3764252" }, "geometry": { "type": "Point", "coordinates": [ -96.109269761169003, 29.247011254903068 ] } },
{ "type": "Feature", "properties": { "comid": "3764254" }, "geometry": { "type": "Point", "coordinates": [ -96.099848874957047, 29.233610542216109 ] } },
{ "type": "Feature", "properties": { "comid": "3764256" }, "geometry": { "type": "Point", "coordinates": [ -96.064910020967019, 29.180898401101874 ] } },
{ "type": "Feature", "properties": { "comid": "3764258" }, "geometry": { "type": "Point", "coordinates": [ -96.090042700258905, 29.206518645397743 ] } },
{ "type": "Feature", "properties": { "comid": "3764260" }, "geometry": { "type": "Point", "coordinates": [ -96.046623286522305, 29.171379366655099 ] } },
{ "type": "Feature", "properties": { "comid": "3764262" }, "geometry": { "type": "Point", "coordinates": [ -96.096852261405033, 29.220896054789971 ] } },
{ "type": "Feature", "properties": { "comid": "3764264" }, "geometry": { "type": "Point", "coordinates": [ -96.048476494664186, 29.173124554782841 ] } },
{ "type": "Feature", "properties": { "comid": "3764266" }, "geometry": { "type": "Point", "coordinates": [ -96.046229528031276, 29.169275821958411 ] } },
{ "type": "Feature", "properties": { "comid": "3764268" }, "geometry": { "type": "Point", "coordinates": [ -96.045255342750124, 29.158015700933021 ] } },
{ "type": "Feature", "properties": { "comid": "3764270" }, "geometry": { "type": "Point", "coordinates": [ -96.044567738023261, 29.137045126647298 ] } },
{ "type": "Feature", "properties": { "comid": "3764272" }, "geometry": { "type": "Point", "coordinates": [ -96.046762084461037, 29.123279638435779 ] } },
{ "type": "Feature", "properties": { "comid": "3764274" }, "geometry": { "type": "Point", "coordinates": [ -96.044538694494364, 29.128795388318856 ] } },
{ "type": "Feature", "properties": { "comid": "3764276" }, "geometry": { "type": "Point", "coordinates": [ -96.051676394167856, 29.119300555388534 ] } },
{ "type": "Feature", "properties": { "comid": "3764278" }, "geometry": { "type": "Point", "coordinates": [ -96.038185928321283, 29.106317154958628 ] } },
{ "type": "Feature", "properties": { "comid": "3764280" }, "geometry": { "type": "Point", "coordinates": [ -96.045071921104551, 29.113194053749115 ] } },
{ "type": "Feature", "properties": { "comid": "3764282" }, "geometry": { "type": "Point", "coordinates": [ -96.040258280379604, 29.102500881622351 ] } },
{ "type": "Feature", "properties": { "comid": "3764284" }, "geometry": { "type": "Point", "coordinates": [ -96.02938882195896, 29.084384974717995 ] } },
{ "type": "Feature", "properties": { "comid": "3764286" }, "geometry": { "type": "Point", "coordinates": [ -96.019127456143579, 29.069579316701716 ] } },
{ "type": "Feature", "properties": { "comid": "3764288" }, "geometry": { "type": "Point", "coordinates": [ -96.012654746201036, 29.016654940201061 ] } },
{ "type": "Feature", "properties": { "comid": "3764290" }, "geometry": { "type": "Point", "coordinates": [ -96.020572814264, 29.021913597456997 ] } },
{ "type": "Feature", "properties": { "comid": "3764292" }, "geometry": { "type": "Point", "coordinates": [ -96.018228568190068, 29.036357176072599 ] } },
{ "type": "Feature", "properties": { "comid": "3764294" }, "geometry": { "type": "Point", "coordinates": [ -96.018541340490543, 29.059286627304928 ] } },
{ "type": "Feature", "properties": { "comid": "3764296" }, "geometry": { "type": "Point", "coordinates": [ -96.00332197564164, 29.005604350769175 ] } },
{ "type": "Feature", "properties": { "comid": "3764298" }, "geometry": { "type": "Point", "coordinates": [ -96.016256927957969, 29.072489621639608 ] } },
{ "type": "Feature", "properties": { "comid": "3764300" }, "geometry": { "type": "Point", "coordinates": [ -96.021852694602416, 29.066516155605033 ] } },
{ "type": "Feature", "properties": { "comid": "3764302" }, "geometry": { "type": "Point", "coordinates": [ -96.017948528079017, 29.022592954973703 ] } },
{ "type": "Feature", "properties": { "comid": "3764304" }, "geometry": { "type": "Point", "coordinates": [ -96.022220828096891, 29.020360788593795 ] } },
{ "type": "Feature", "properties": { "comid": "3764306" }, "geometry": { "type": "Point", "coordinates": [ -96.006789161770243, 29.010094388445182 ] } },
{ "type": "Feature", "properties": { "comid": "3764308" }, "geometry": { "type": "Point", "coordinates": [ -96.208564427475991, 29.349542687896818 ] } },
{ "type": "Feature", "properties": { "comid": "3764310" }, "geometry": { "type": "Point", "coordinates": [ -96.221336727739498, 29.347521954550807 ] } },
{ "type": "Feature", "properties": { "comid": "3764312" }, "geometry": { "type": "Point", "coordinates": [ -96.200321194647103, 29.340371987905225 ] } },
{ "type": "Feature", "properties": { "comid": "3764314" }, "geometry": { "type": "Point", "coordinates": [ -96.224191166881042, 29.346086227012776 ] } },
{ "type": "Feature", "properties": { "comid": "3764316" }, "geometry": { "type": "Point", "coordinates": [ -96.200226227651157, 29.342181254509448 ] } },
{ "type": "Feature", "properties": { "comid": "3764318" }, "geometry": { "type": "Point", "coordinates": [ -96.005841061604997, 29.087190992516948 ] } },
{ "type": "Feature", "properties": { "comid": "3765366" }, "geometry": { "type": "Point", "coordinates": [ -96.028687073501658, 28.99929871184046 ] } },
{ "type": "Feature", "properties": { "comid": "3765370" }, "geometry": { "type": "Point", "coordinates": [ -96.005783499004494, 28.988236751214231 ] } },
{ "type": "Feature", "properties": { "comid": "3765378" }, "geometry": { "type": "Point", "coordinates": [ -96.042362918521491, 28.973335882201148 ] } },
{ "type": "Feature", "properties": { "comid": "3765380" }, "geometry": { "type": "Point", "coordinates": [ -96.008379328522139, 28.969134459541809 ] } },
{ "type": "Feature", "properties": { "comid": "3765382" }, "geometry": { "type": "Point", "coordinates": [ -96.019844452182966, 28.965797226185874 ] } },
{ "type": "Feature", "properties": { "comid": "3765384" }, "geometry": { "type": "Point", "coordinates": [ -96.026533636274706, 28.960157579341328 ] } },
{ "type": "Feature", "properties": { "comid": "3765386" }, "geometry": { "type": "Point", "coordinates": [ -96.013174933137648, 28.954000096053733 ] } },
{ "type": "Feature", "properties": { "comid": "3765390" }, "geometry": { "type": "Point", "coordinates": [ -96.00459260426706, 28.955772014114995 ] } },
{ "type": "Feature", "properties": { "comid": "3765392" }, "geometry": { "type": "Point", "coordinates": [ -96.011427423867801, 28.949985041249153 ] } },
{ "type": "Feature", "properties": { "comid": "3765394" }, "geometry": { "type": "Point", "coordinates": [ -96.018445187095693, 28.949338619448014 ] } },
{ "type": "Feature", "properties": { "comid": "3765396" }, "geometry": { "type": "Point", "coordinates": [ -96.009600561348961, 28.943262240936367 ] } },
{ "type": "Feature", "properties": { "comid": "3765398" }, "geometry": { "type": "Point", "coordinates": [ -96.017360140416272, 28.942221580490404 ] } },
{ "type": "Feature", "properties": { "comid": "3765402" }, "geometry": { "type": "Point", "coordinates": [ -96.032800247286048, 28.927760848291857 ] } },
{ "type": "Feature", "properties": { "comid": "3765404" }, "geometry": { "type": "Point", "coordinates": [ -96.014974691676898, 28.926804484137989 ] } },
{ "type": "Feature", "properties": { "comid": "3765406" }, "geometry": { "type": "Point", "coordinates": [ -96.019449847101356, 28.91652562409655 ] } },
{ "type": "Feature", "properties": { "comid": "3765408" }, "geometry": { "type": "Point", "coordinates": [ -96.026796444920123, 28.918618538699072 ] } },
{ "type": "Feature", "properties": { "comid": "3765410" }, "geometry": { "type": "Point", "coordinates": [ -96.010654150465342, 28.925149044926307 ] } },
{ "type": "Feature", "properties": { "comid": "3765414" }, "geometry": { "type": "Point", "coordinates": [ -96.024637363895181, 28.909488372145077 ] } },
{ "type": "Feature", "properties": { "comid": "3765432" }, "geometry": { "type": "Point", "coordinates": [ -96.004468269296183, 28.863031812602561 ] } },
{ "type": "Feature", "properties": { "comid": "3765434" }, "geometry": { "type": "Point", "coordinates": [ -96.012062529879643, 28.841631943245261 ] } },
{ "type": "Feature", "properties": { "comid": "3765436" }, "geometry": { "type": "Point", "coordinates": [ -96.035310054773518, 28.836106115677069 ] } },
{ "type": "Feature", "properties": { "comid": "3765440" }, "geometry": { "type": "Point", "coordinates": [ -96.026419330409453, 28.828430846937458 ] } },
{ "type": "Feature", "properties": { "comid": "3765442" }, "geometry": { "type": "Point", "coordinates": [ -96.005549631393606, 28.831245495468139 ] } },
{ "type": "Feature", "properties": { "comid": "3765444" }, "geometry": { "type": "Point", "coordinates": [ -96.040134569750222, 28.841081381068623 ] } },
{ "type": "Feature", "properties": { "comid": "3765446" }, "geometry": { "type": "Point", "coordinates": [ -96.009793981414276, 28.827083270951089 ] } },
{ "type": "Feature", "properties": { "comid": "3765448" }, "geometry": { "type": "Point", "coordinates": [ -96.028071916522293, 28.818301679931093 ] } },
{ "type": "Feature", "properties": { "comid": "3765450" }, "geometry": { "type": "Point", "coordinates": [ -96.013389593836607, 28.820375037433063 ] } },
{ "type": "Feature", "properties": { "comid": "3765452" }, "geometry": { "type": "Point", "coordinates": [ -96.018326749106564, 28.809590680747561 ] } },
{ "type": "Feature", "properties": { "comid": "3765454" }, "geometry": { "type": "Point", "coordinates": [ -96.019482147809185, 28.80973770324097 ] } },
{ "type": "Feature", "properties": { "comid": "3765456" }, "geometry": { "type": "Point", "coordinates": [ -96.009177392318236, 28.797494380225334 ] } },
{ "type": "Feature", "properties": { "comid": "3765730" }, "geometry": { "type": "Point", "coordinates": [ -96.047520250896454, 28.841623270921033 ] } },
{ "type": "Feature", "properties": { "comid": "3765732" }, "geometry": { "type": "Point", "coordinates": [ -96.020275773602009, 28.839329068125643 ] } },
{ "type": "Feature", "properties": { "comid": "3765734" }, "geometry": { "type": "Point", "coordinates": [ -96.010599961701189, 28.826154555470456 ] } },
{ "type": "Feature", "properties": { "comid": "3765736" }, "geometry": { "type": "Point", "coordinates": [ -96.016301694734494, 28.921894655204547 ] } },
{ "type": "Feature", "properties": { "comid": "3765738" }, "geometry": { "type": "Point", "coordinates": [ -96.016036361236573, 28.92277728858868 ] } },
{ "type": "Feature", "properties": { "comid": "3765740" }, "geometry": { "type": "Point", "coordinates": [ -96.016002928358191, 28.922293207288121 ] } },
{ "type": "Feature", "properties": { "comid": "3765742" }, "geometry": { "type": "Point", "coordinates": [ -96.020790705254939, 28.908352064404134 ] } },
{ "type": "Feature", "properties": { "comid": "3765744" }, "geometry": { "type": "Point", "coordinates": [ -96.024932427643733, 28.905592755302767 ] } },
{ "type": "Feature", "properties": { "comid": "3765746" }, "geometry": { "type": "Point", "coordinates": [ -96.009483161386214, 28.981011088386541 ] } },
{ "type": "Feature", "properties": { "comid": "3765748" }, "geometry": { "type": "Point", "coordinates": [ -96.005616066372468, 28.98183274465617 ] } },
{ "type": "Feature", "properties": { "comid": "3765750" }, "geometry": { "type": "Point", "coordinates": [ -96.010788164125941, 28.935713382880497 ] } },
{ "type": "Feature", "properties": { "comid": "3765752" }, "geometry": { "type": "Point", "coordinates": [ -96.012457861255427, 28.932124688725615 ] } },
{ "type": "Feature", "properties": { "comid": "3765754" }, "geometry": { "type": "Point", "coordinates": [ -96.012424028235444, 28.9308707554828 ] } },
{ "type": "Feature", "properties": { "comid": "3765756" }, "geometry": { "type": "Point", "coordinates": [ -96.001402808371481, 28.994630657858657 ] } },
{ "type": "Feature", "properties": { "comid": "3765758" }, "geometry": { "type": "Point", "coordinates": [ -96.035376406596797, 28.870230085771365 ] } },
{ "type": "Feature", "properties": { "comid": "3765760" }, "geometry": { "type": "Point", "coordinates": [ -96.029034361857015, 28.85249065547249 ] } },
{ "type": "Feature", "properties": { "comid": "3765762" }, "geometry": { "type": "Point", "coordinates": [ -96.001584861329064, 28.982227855053413 ] } },
{ "type": "Feature", "properties": { "comid": "3765764" }, "geometry": { "type": "Point", "coordinates": [ -96.000935395560788, 28.982814846544052 ] } },
{ "type": "Feature", "properties": { "comid": "3765766" }, "geometry": { "type": "Point", "coordinates": [ -96.014763561615325, 28.953126355218814 ] } },
{ "type": "Feature", "properties": { "comid": "3765768" }, "geometry": { "type": "Point", "coordinates": [ -96.013956249461671, 28.967188321944008 ] } },
{ "type": "Feature", "properties": { "comid": "3765770" }, "geometry": { "type": "Point", "coordinates": [ -96.014175738515121, 28.948918347759307 ] } },
{ "type": "Feature", "properties": { "comid": "3765772" }, "geometry": { "type": "Point", "coordinates": [ -96.015660327824705, 28.944997755289954 ] } },
{ "type": "Feature", "properties": { "comid": "3765774" }, "geometry": { "type": "Point", "coordinates": [ -96.013742615330329, 28.942346656144757 ] } },
{ "type": "Feature", "properties": { "comid": "3765776" }, "geometry": { "type": "Point", "coordinates": [ -96.010473794926384, 28.940349555310661 ] } },
{ "type": "Feature", "properties": { "comid": "3765778" }, "geometry": { "type": "Point", "coordinates": [ -96.009974761605918, 28.939526188689165 ] } },
{ "type": "Feature", "properties": { "comid": "3765780" }, "geometry": { "type": "Point", "coordinates": [ -96.010462743296685, 28.939866765455207 ] } },
{ "type": "Feature", "properties": { "comid": "3765782" }, "geometry": { "type": "Point", "coordinates": [ -96.012177880610565, 28.931494985499604 ] } },
{ "type": "Feature", "properties": { "comid": "3765784" }, "geometry": { "type": "Point", "coordinates": [ -96.012710383059627, 28.926437752208212 ] } },
{ "type": "Feature", "properties": { "comid": "3765786" }, "geometry": { "type": "Point", "coordinates": [ -96.01593239097987, 28.916488891372964 ] } },
{ "type": "Feature", "properties": { "comid": "3765788" }, "geometry": { "type": "Point", "coordinates": [ -96.016423561309097, 28.911045655480162 ] } },
{ "type": "Feature", "properties": { "comid": "3765790" }, "geometry": { "type": "Point", "coordinates": [ -96.030137555337134, 28.896397486492948 ] } },
{ "type": "Feature", "properties": { "comid": "3765792" }, "geometry": { "type": "Point", "coordinates": [ -96.006480061382348, 28.819786169795872 ] } },
{ "type": "Feature", "properties": { "comid": "3765794" }, "geometry": { "type": "Point", "coordinates": [ -96.001993685542828, 28.767902681960685 ] } },
{ "type": "Feature", "properties": { "comid": "3765796" }, "geometry": { "type": "Point", "coordinates": [ -96.001953127507477, 28.762522025501838 ] } },
{ "type": "Feature", "properties": { "comid": "3765798" }, "geometry": { "type": "Point", "coordinates": [ -96.00088975604028, 28.760905857935015 ] } },
{ "type": "Feature", "properties": { "comid": "3765800" }, "geometry": { "type": "Point", "coordinates": [ -96.001118644743286, 28.800502626995168 ] } },
{ "type": "Feature", "properties": { "comid": "3766300" }, "geometry": { "type": "Point", "coordinates": [ -95.989626945658088, 28.759748519719587 ] } },
{ "type": "Feature", "properties": { "comid": "3766322" }, "geometry": { "type": "Point", "coordinates": [ -95.977677136330229, 28.681356498312141 ] } },
{ "type": "Feature", "properties": { "comid": "3766324" }, "geometry": { "type": "Point", "coordinates": [ -95.976364561178556, 28.682108855606142 ] } },
{ "type": "Feature", "properties": { "comid": "3766326" }, "geometry": { "type": "Point", "coordinates": [ -95.976264928113025, 28.681625888876383 ] } },
{ "type": "Feature", "properties": { "comid": "3766328" }, "geometry": { "type": "Point", "coordinates": [ -95.975179269465755, 28.682463094856402 ] } },
{ "type": "Feature", "properties": { "comid": "3766330" }, "geometry": { "type": "Point", "coordinates": [ -95.967969038506794, 28.671660926867439 ] } },
{ "type": "Feature", "properties": { "comid": "3766332" }, "geometry": { "type": "Point", "coordinates": [ -95.976251961454039, 28.681231755519008 ] } },
{ "type": "Feature", "properties": { "comid": "3766334" }, "geometry": { "type": "Point", "coordinates": [ -95.977596224171904, 28.696172128707079 ] } },
{ "type": "Feature", "properties": { "comid": "3766336" }, "geometry": { "type": "Point", "coordinates": [ -95.97652296131848, 28.682557055543654 ] } },
{ "type": "Feature", "properties": { "comid": "3766342" }, "geometry": { "type": "Point", "coordinates": [ -95.981669632512265, 28.597917355830898 ] } },
{ "type": "Feature", "properties": { "comid": "3766344" }, "geometry": { "type": "Point", "coordinates": [ -95.980409373233883, 28.597444095659586 ] } },
{ "type": "Feature", "properties": { "comid": "3766346" }, "geometry": { "type": "Point", "coordinates": [ -95.977438677299702, 28.608223760575839 ] } },
{ "type": "Feature", "properties": { "comid": "3766348" }, "geometry": { "type": "Point", "coordinates": [ -95.968125961733634, 28.638622516446354 ] } },
{ "type": "Feature", "properties": { "comid": "3766350" }, "geometry": { "type": "Point", "coordinates": [ -95.999097027722939, 28.807684128012966 ] } },
{ "type": "Feature", "properties": { "comid": "3766352" }, "geometry": { "type": "Point", "coordinates": [ -95.997653528072846, 28.807649322374701 ] } },
{ "type": "Feature", "properties": { "comid": "3766354" }, "geometry": { "type": "Point", "coordinates": [ -95.998213974433341, 28.811206541960932 ] } },
{ "type": "Feature", "properties": { "comid": "3766356" }, "geometry": { "type": "Point", "coordinates": [ -95.998542251576168, 28.805590655647844 ] } },
{ "type": "Feature", "properties": { "comid": "3766358" }, "geometry": { "type": "Point", "coordinates": [ -95.993530791093022, 28.797418075367172 ] } },
{ "type": "Feature", "properties": { "comid": "3766360" }, "geometry": { "type": "Point", "coordinates": [ -95.999039895388719, 28.794646356063947 ] } },
{ "type": "Feature", "properties": { "comid": "3766362" }, "geometry": { "type": "Point", "coordinates": [ -95.997362457081763, 28.790919507482243 ] } },
{ "type": "Feature", "properties": { "comid": "3766364" }, "geometry": { "type": "Point", "coordinates": [ -95.998654138492341, 28.788795367375812 ] } },
{ "type": "Feature", "properties": { "comid": "3766366" }, "geometry": { "type": "Point", "coordinates": [ -95.996845961639778, 28.789423755552473 ] } },
{ "type": "Feature", "properties": { "comid": "3766368" }, "geometry": { "type": "Point", "coordinates": [ -95.994417313037701, 28.780831740355183 ] } },
{ "type": "Feature", "properties": { "comid": "3766370" }, "geometry": { "type": "Point", "coordinates": [ -95.998557354631728, 28.758072912067739 ] } },
{ "type": "Feature", "properties": { "comid": "3766372" }, "geometry": { "type": "Point", "coordinates": [ -95.992135804108671, 28.742217201591245 ] } },
{ "type": "Feature", "properties": { "comid": "3766374" }, "geometry": { "type": "Point", "coordinates": [ -95.984899961057295, 28.742228955547755 ] } },
{ "type": "Feature", "properties": { "comid": "3766376" }, "geometry": { "type": "Point", "coordinates": [ -95.973789426898435, 28.722893395079396 ] } },
{ "type": "Feature", "properties": { "comid": "3766378" }, "geometry": { "type": "Point", "coordinates": [ -95.978340193637166, 28.740322930024984 ] } },
{ "type": "Feature", "properties": { "comid": "3766380" }, "geometry": { "type": "Point", "coordinates": [ -95.999304350351409, 28.987553706493213 ] } },
{ "type": "Feature", "properties": { "comid": "3766382" }, "geometry": { "type": "Point", "coordinates": [ -95.999528484764539, 28.984416194501762 ] } },
{ "type": "Feature", "properties": { "comid": "3766384" }, "geometry": { "type": "Point", "coordinates": [ -95.998475387616907, 28.752223737700085 ] } },
{ "type": "Feature", "properties": { "comid": "3766386" }, "geometry": { "type": "Point", "coordinates": [ -95.999658179939658, 28.746904985336549 ] } },
{ "type": "Feature", "properties": { "comid": "3766390" }, "geometry": { "type": "Point", "coordinates": [ -95.999600258925, 28.745330724088113 ] } },
{ "type": "Feature", "properties": { "comid": "3766986" }, "geometry": { "type": "Point", "coordinates": [ -96.21495981007665, 29.348443085452001 ] } },
{ "type": "Feature", "properties": { "comid": "3767010" }, "geometry": { "type": "Point", "coordinates": [ -96.199392261446548, 29.337726906663903 ] } },
{ "type": "Feature", "properties": { "comid": "3767012" }, "geometry": { "type": "Point", "coordinates": [ -96.20240058186674, 29.347455132512728 ] } },
{ "type": "Feature", "properties": { "comid": "9354366" }, "geometry": { "type": "Point", "coordinates": [ -96.109693007485774, 29.053988099169135 ] } }
]
}
